{
  "type": "FeatureCollection",
  "features": [
    {
      "type": "Feature",
      "geometry": {
        "type": "LineString",
        "coordinates": [
          [
            76.1874,
            -69.408
          ],
          [
            75.163975,
            -69.107
          ],
          [
            74.14054999999999,
            -68.806
          ],
          [
            73.117125,
            -68.505
          ],
          [
            72.0937,
            -68.20400000000001
          ],
          [
            71.070275,
            -67.903
          ],
          [
            70.04685,
            -67.602
          ],
          [
            69.023425,
            -67.301
          ],
          [
            68.0,
            -67.0
          ],
          [
            60.9664875,
            -67.4708375
          ],
          [
            53.932975,
            -67.941675
          ],
          [
            46.8994625,
            -68.4125125
          ],
          [
            39.86595,
            -68.88335000000001
          ],
          [
            32.8324375,
            -69.3541875
          ],
          [
            25.798924999999997,
            -69.825025
          ],
          [
            18.765412499999996,
            -70.2958625
          ],
          [
            11.7319,
            -70.7667
          ]
        ]
      },
      "properties": {
        "kind": "route",
        "label": "Bharati - Amery/Lambert - Maitri (illustrative)",
        "note": "Illustrative interpolation between waypoints, not a recorded vessel track."
      }
    },
    {
      "type": "Feature",
      "geometry": {
        "type": "Point",
        "coordinates": [
          11.7319,
          -70.7667
        ]
      },
      "properties": {
        "kind": "station",
        "name": "Maitri"
      }
    },
    {
      "type": "Feature",
      "geometry": {
        "type": "Point",
        "coordinates": [
          76.1874,
          -69.408
        ]
      },
      "properties": {
        "kind": "station",
        "name": "Bharati"
      }
    },
    {
      "type": "Feature",
      "geometry": {
        "type": "LineString",
        "coordinates": [
          [
            78.0,
            -68.49999999999991
          ],
          [
            78.0000000000016,
            -68.49999999999733
          ],
          [
            78.0000000001955,
            -68.49999999968715
          ],
          [
            78.00000001984301,
            -68.49999996820821
          ],
          [
            78.00000192437496,
            -68.49999686948073
          ],
          [
            78.00003145599281,
            -68.49994583025119
          ],
          [
            78.0000935481937,
            -68.49982814217272
          ],
          [
            78.00018591613812,
            -68.49963132972594
          ],
          [
            78.0003033429388,
            -68.49934048721425
          ],
          [
            78.00043653269407,
            -68.4989367719133
          ],
          [
            78.00056924338536,
            -68.49839866264925
          ],
          [
            78.00067554715089,
            -68.49770325522994
          ],
          [
            78.00071760595232,
            -68.49682826061293
          ],
          [
            78.00064520913233,
            -68.49575471752334
          ],
          [
            78.00039862860218,
            -68.49446963389649
          ],
          [
            77.99991503855443,
            -68.49296642001333
          ],
          [
            77.99913538803236,
            -68.49124090740229
          ],
          [
            77.99800640505639,
            -68.48928305609431
          ],
          [
            77.99647364725095,
            -68.48706529333786
          ],
          [
            77.99446228276088,
            -68.48452486638428
          ],
          [
            77.99184193505971,
            -68.48153526505516
          ],
          [
            77.98852653050206,
            -68.47801993981818
          ],
          [
            77.98502976100269,
            -68.47448000670124
          ],
          [
            77.98142748910172,
            -68.47092673690229
          ],
          [
            77.97760123043408,
            -68.46720630213318
          ],
          [
            77.97347334999087,
            -68.4632232683481
          ],
          [
            77.96896136368471,
            -68.45888568822629
          ],
          [
            77.96396008963238,
            -68.45408449134902
          ],
          [
            77.95832329438184,
            -68.44867412603512
          ],
          [
            77.95183512496105,
            -68.44244392552571
          ],
          [
            77.94415405312515,
            -68.43506316308486
          ],
          [
            77.93468583399005,
            -68.42595758673203
          ],
          [
            77.92223720678635,
            -68.41397380757553
          ],
          [
            77.90424921754015,
            -68.3966343288169
          ],
          [
            77.88046152765342,
            -68.37366246022344
          ],
          [
            77.85534404415442,
            -68.34935460453971
          ],
          [
            77.83513246245244,
            -68.32975583793635
          ],
          [
            77.8149639038974,
            -68.31016430265376
          ],
          [
            77.79352990440304,
            -68.28930563844362
          ],
          [
            77.76414953732342,
            -68.26065036533203
          ],
          [
            77.74880004402335,
            -68.24565041173342
          ],
          [
            77.73347553535156,
            -68.23065475598504
          ],
          [
            77.70070170284409,
            -68.19851664608386
          ],
          [
            77.67599401725722,
            -68.17422712791574
          ],
          [
            77.65448924238375,
            -68.15304346459591
          ],
          [
            77.63303361069016,
            -68.13186837829718
          ],
          [
            77.612788411368,
            -68.11185124652386
          ],
          [
            77.59093804068786,
            -68.09020707040419
          ],
          [
            77.56913856365793,
            -68.06857188530039
          ],
          [
            77.54788857597369,
            -68.04744204332414
          ],
          [
            77.5290008486411,
            -68.02862793570085
          ],
          [
            77.51015129947129,
            -68.00982067282035
          ],
          [
            77.50250810979001,
            -68.0021857228996
          ]
        ]
      },
      "properties": {
        "kind": "iceberg_trajectory",
        "iceberg": "near_bharati",
        "mode": "FREE_FLOATING",
        "t_start": 0.0,
        "t_end": 259200.0
      }
    },
    {
      "type": "Feature",
      "geometry": {
        "type": "LineString",
        "coordinates": [
          [
            68.0,
            -66.99999999999986
          ],
          [
            68.00000000000257,
            -66.99999999999748
          ],
          [
            68.00000000030994,
            -66.99999999971367
          ],
          [
            68.00000003147895,
            -66.99999997090664
          ],
          [
            68.00000307409046,
            -66.99999713269199
          ],
          [
            68.00005279908102,
            -66.9999490373133
          ],
          [
            68.0001621516643,
            -66.99983747191467
          ],
          [
            68.00033443490827,
            -66.99965005216279
          ],
          [
            68.0005712659732,
            -66.99937184255663
          ],
          [
            68.00087219670955,
            -66.99898377676101
          ],
          [
            68.0012314791996,
            -66.99846373208464
          ],
          [
            68.00163494209713,
            -66.99778766053088
          ],
          [
            68.00205706044538,
            -66.99693146238023
          ],
          [
            68.00245940621382,
            -66.99587367515255
          ],
          [
            68.00279228781872,
            -66.99459825085378
          ],
          [
            68.00300067778458,
            -66.9930952785288
          ],
          [
            68.00303235341885,
            -66.9913573473519
          ],
          [
            68.00284322722096,
            -66.98937147348782
          ],
          [
            68.0023958304498,
            -66.98710731159812
          ],
          [
            68.00164924631171,
            -66.98449895126541
          ],
          [
            68.00053981120067,
            -66.98141624638889
          ],
          [
            67.99902658688497,
            -66.97778833224719
          ],
          [
            67.99735820809983,
            -66.97412262373054
          ],
          [
            67.99559765189085,
            -66.97043294210323
          ],
          [
            67.99370428989499,
            -66.96656535977975
          ],
          [
            67.99164823850397,
            -66.96242211760124
          ],
          [
            67.98939336837014,
            -66.95790797292571
          ],
          [
            67.9868898306736,
            -66.95290896294462
          ],
          [
            67.9840655592122,
            -66.94727229759671
          ],
          [
            67.9808118072234,
            -66.94077536408116
          ],
          [
            67.97695443403224,
            -66.93306654789653
          ],
          [
            67.97218715058325,
            -66.92352974665926
          ],
          [
            67.96588659668824,
            -66.91091095464651
          ],
          [
            67.95679110599329,
            -66.8926663842854
          ],
          [
            67.94498152084144,
            -66.86892869502384
          ],
          [
            67.93203655243322,
            -66.84284503192127
          ],
          [
            67.92180121208827,
            -66.82217386077355
          ],
          [
            67.9115865780387,
            -66.8015026560745
          ],
          [
            67.90123013880643,
            -66.78050156861134
          ],
          [
            67.88907217840544,
            -66.7557920753667
          ],
          [
            67.87905071936844,
            -66.73537977235054
          ],
          [
            67.86904928336303,
            -66.71496747204061
          ],
          [
            67.85680485642895,
            -66.68992179927815
          ],
          [
            67.84625462719174,
            -66.66829237493084
          ],
          [
            67.83572668972683,
            -66.64666296080138
          ],
          [
            67.82492877257287,
            -66.62443137029744
          ],
          [
            67.81415421147436,
            -66.60219978321886
          ],
          [
            67.80263572576987,
            -66.57837978060016
          ],
          [
            67.79328174241064,
            -66.55899517973143
          ],
          [
            67.78394537208234,
            -66.53961058794152
          ],
          [
            67.77089365491577,
            -66.51245060173838
          ],
          [
            67.76048463004194,
            -66.49073837912736
          ]
        ]
      },
      "properties": {
        "kind": "iceberg_trajectory",
        "iceberg": "midway_amery",
        "mode": "FREE_FLOATING",
        "t_start": 0.0,
        "t_end": 259200.0
      }
    },
    {
      "type": "Feature",
      "geometry": {
        "type": "LineString",
        "coordinates": [
          [
            9.000000000000002,
            -69.49999999999994
          ],
          [
            9.000000000007704,
            -69.49999999999956
          ],
          [
            9.000000000932076,
            -69.49999999995332
          ],
          [
            9.000000094730694,
            -69.49999999525019
          ],
          [
            9.00000931458633,
            -69.49999952198827
          ],
          [
            9.000156917750543,
            -69.49999128662553
          ],
          [
            9.000494324115248,
            -69.49997030478741
          ],
          [
            9.00105402821575,
            -69.49993135269075
          ],
          [
            9.00187398119302,
            -69.49986734062404
          ],
          [
            9.003001121278107,
            -69.49976838908037
          ],
          [
            9.004487017933316,
            -69.4996212976967
          ],
          [
            9.006383488434048,
            -69.49940906038498
          ],
          [
            9.008736566715937,
            -69.49911078685594
          ],
          [
            9.011579191110737,
            -69.49870245522942
          ],
          [
            9.014925129286965,
            -69.49815876674052
          ],
          [
            9.01876980533347,
            -69.49745548222394
          ],
          [
            9.023102997686056,
            -69.49657042129151
          ],
          [
            9.02793162973568,
            -69.49548127370858
          ],
          [
            9.033308678150311,
            -69.49415906761838
          ],
          [
            9.039374001306568,
            -69.4925550874647
          ],
          [
            9.046421462183515,
            -69.49057737004688
          ],
          [
            9.054648409101292,
            -69.48816043601302
          ],
          [
            9.062864037277027,
            -69.48567215056637
          ],
          [
            9.0710611050752,
            -69.48314486685247
          ],
          [
            9.079618289290616,
            -69.48047920843695
          ],
          [
            9.08876311353115,
            -69.47761354288623
          ],
          [
            9.09871020450733,
            -69.47448611837066
          ],
          [
            9.109710193153957,
            -69.47102132781959
          ],
          [
            9.12209334380543,
            -69.46711668363066
          ],
          [
            9.136334221986512,
            -69.46262276445935
          ],
          [
            9.153172177832971,
            -69.45730523677258
          ],
          [
            9.173878059075305,
            -69.4507601927995
          ],
          [
            9.200969980822896,
            -69.44218622766788
          ],
          [
            9.240070225294398,
            -69.42979086670694
          ],
          [
            9.292804506845423,
            -69.4130336556359
          ],
          [
            9.334028238598046,
            -69.39990231362272
          ],
          [
            9.375185561873229,
            -69.38676417591759
          ],
          [
            9.440743233702845,
            -69.3657792141959
          ],
          [
            9.487522979851938,
            -69.35076152818822
          ],
          [
            9.534216717031684,
            -69.3357351476755
          ],
          [
            9.582060565652498,
            -69.32030093128309
          ],
          [
            9.628215688926556,
            -69.3053752380781
          ],
          [
            9.666591552174147,
            -69.29293800362251
          ],
          [
            9.70490907221245,
            -69.28049496285574
          ],
          [
            9.776126310302624,
            -69.25730245586234
          ],
          [
            9.819968474269933,
            -69.242982231863
          ],
          [
            9.863734044827698,
            -69.22865447503247
          ],
          [
            9.920148205206175,
            -69.21013778313414
          ],
          [
            9.972519488595786,
            -69.1928994751882
          ],
          [
            10.010032650995393,
            -69.18052290135462
          ],
          [
            10.04748927719431,
            -69.1681408692341
          ],
          [
            10.105193363578723,
            -69.14901836520394
          ],
          [
            10.14868125682637,
            -69.13456896165292
          ]
        ]
      },
      "properties": {
        "kind": "iceberg_trajectory",
        "iceberg": "near_maitri",
        "mode": "FREE_FLOATING",
        "t_start": 0.0,
        "t_end": 259200.0
      }
    }
  ],
  "metadata": {
    "icebergs": {
      "near_bharati": {
        "final_mode": "FREE_FLOATING",
        "events": []
      },
      "midway_amery": {
        "final_mode": "FREE_FLOATING",
        "events": []
      },
      "near_maitri": {
        "final_mode": "FREE_FLOATING",
        "events": []
      }
    },
    "note": "Research/prototype decision-support output. NOT a certified navigation product; no guarantee of real-world safety is implied. Route geometry is illustrative, not a recorded vessel track."
  }
}